NORAD_CAT_ID,OBJECT_NAME,OBJECT_TYPE,EPOCH,MEAN_MOTION,ECCENTRICITY,INCLINATION,RA_OF_ASC_NODE,ARG_OF_PERICENTER,MEAN_ANOMALY,BSTAR,MEAN_MOTION_DOT,MEAN_MOTION_DDOT,TLE_LINE0,TLE_LINE1,TLE_LINE2,SEMIMAJOR_AXIS,PERIOD,APOGEE,PERIGEE,DECAYED
53594.0,STARLINK-4681,PAYLOAD,2023-01-10 10:42:14,15.08842171,0.0001658,53.2182,25.6996,48.8613,311.2522,8.6075e-05,1.082e-05,0.0,0 STARLINK-4681,1 53594U 22104G   23010.44600360  .00001082  00000-0  86075-4 0  9995,2 53594  53.2182  25.6996 0001658  48.8613 311.2522 15.08842171 21833,6917.874,95.437,540.886,538.592,0.0
53594.0,STARLINK-4681,PAYLOAD,2023-01-11 07:22:15,15.08854468,0.0001668,53.2178,21.8318,52.0981,308.0162,0.00042317,6.456e-05,0.0,0 STARLINK-4681,1 53594U 22104G   23011.30712097  .00006456  00000-0  42317-3 0  9992,2 53594  53.2178  21.8318 0001668  52.0981 308.0162 15.08854468 21960,6917.835999999998,95.437,540.855,538.547,0.0
53594.0,STARLINK-4681,PAYLOAD,2023-01-11 20:05:19,15.08858559,0.0001428,53.2175,19.4526,62.0432,298.0704,0.00049034,7.528e-05,0.0,0 STARLINK-4681,1 53594U 22104G   23011.83703679  .00007528  00000-0  49034-3 0  9990,2 53594  53.2175  19.4526 0001428  62.0432 298.0704 15.08858559 22042,6917.824000000001,95.436,540.677,538.701,0.0
53594.0,STARLINK-4681,PAYLOAD,2023-01-12 02:26:52,15.08854728,0.0001435,53.2178,18.2635,57.1778,302.9352,0.00038647,5.871e-05,0.0,0 STARLINK-4681,1 53594U 22104G   23012.10199656  .00005871  00000-0  38647-3 0  9992,2 53594  53.2178  18.2635 0001435  57.1778 302.9352 15.08854728 20922,6917.835,95.437,540.693,538.7080000000002,0.0
53594.0,STARLINK-4681,PAYLOAD,2023-01-12 16:45:20,15.08838957,0.0001651,53.218,15.5888,48.1324,311.9809,-4.8893e-05,-1.066e-05,0.0,0 STARLINK-4681,1 53594U 22104G   23012.69815962 -.00001066  00000-0 -48893-4 0  9990,2 53594  53.2180  15.5888 0001651  48.1324 311.9809 15.08838957 21016,6917.884,95.438,540.891,538.606,0.0
53594.0,STARLINK-4681,PAYLOAD,2023-01-12 19:56:07,15.08829028,0.0001624,53.2182,14.9939,50.0203,310.0932,0.00040447,6.153e-05,0.0,0 STARLINK-4681,1 53594U 22104G   23012.83064717  .00006153  00000-0  40447-3 0  9996,2 53594  53.2182  14.9939 0001624  50.0203 310.0932 15.08829028 22192,6917.914000000002,95.438,540.9019999999998,538.655,0.0
53594.0,STARLINK-4681,PAYLOAD,2023-01-13 00:42:16,15.08852438,0.000165,53.2186,14.102,47.5461,312.567,4.9206e-05,4.95e-06,0.0,0 STARLINK-4681,1 53594U 22104G   23013.02935452  .00000495  00000-0  49206-4 0  9997,2 53594  53.2186  14.1020 0001650  47.5461 312.5670 15.08852438 21067,6917.842,95.437,540.849,538.566,0.0
53594.0,STARLINK-4681,PAYLOAD,2023-01-13 07:03:47,15.08864764,0.0001626999999999,53.2185,12.9127,49.353,310.7603,0.00015359,2.159e-05,0.0,0 STARLINK-4681,1 53594U 22104G   23013.29430152  .00002159  00000-0  15359-3 0  9993,2 53594  53.2185  12.9127 0001627  49.3530 310.7603 15.08864764 21107,6917.805,95.436,540.795,538.544,0.0
53594.0,STARLINK-4681,PAYLOAD,2023-01-13 16:36:07,15.08842273,0.0001713,53.2186,11.1286,51.4111,308.7034,-1.8465e-05,-5.82e-06,0.0,0 STARLINK-4681,1 53594U 22104G   23013.69175892 -.00000582  00000-0 -18465-4 0  9996,2 53594  53.2186  11.1286 0001713  51.4111 308.7034 15.08842273 21162,6917.8730000000005,95.437,540.923,538.553,0.0
53594.0,STARLINK-4681,PAYLOAD,2023-01-14 05:19:14,15.08815208,0.0001708,53.218,8.7499,72.5052,287.6127,-0.00033409,-5.598e-05,0.0,0 STARLINK-4681,1 53594U 22104G   23014.22169355 -.00005598  00000-0 -33409-3 0  9999,2 53594  53.2180   8.7499 0001708  72.5052 287.6127 15.08815208 21241,6917.956,95.439,541.003,538.64,0.0
53594.0,STARLINK-4681,PAYLOAD,2023-01-14 16:26:56,15.08822543,0.0001713,53.2183,6.6682,70.37,289.7477,-4.1011e-05,-9.4e-06,0.0,0 STARLINK-4681,1 53594U 22104G   23014.68537673 -.00000940  00000-0 -41011-4 0  9996,2 53594  53.2183   6.6682 0001713  70.3700 289.7477 15.08822543 21316,6917.934,95.439,540.984,538.614,0.0
53594.0,STARLINK-4681,PAYLOAD,2023-01-15 03:34:38,15.0883741,0.0001701,53.2181,4.5881,79.1821,280.9363,0.00059367,9.172e-05,0.0,0 STARLINK-4681,1 53594U 22104G   23015.14905841  .00009172  00000-0  59367-3 0  9990,2 53594  53.2181   4.5881 0001701  79.1821 280.9363 15.08837410 21383,6917.888000000001,95.438,540.93,538.577,0.0
53594.0,STARLINK-4681,PAYLOAD,2023-01-15 16:17:43,15.08853907,0.0001738,53.2179,2.2087,84.0148,276.1042,0.0011093,0.00017417,0.0,0 STARLINK-4681,1 53594U 22104G   23015.67898056  .00017417  00000-0  11093-2 0  9991,2 53594  53.2179   2.2087 0001738  84.0148 276.1042 15.08853907 22628,6917.838000000001,95.437,540.905,538.501,0.0
53594.0,STARLINK-4681,PAYLOAD,2023-01-16 05:00:47,15.08885489,0.0001636999999999,53.2176,359.8293,105.7866,254.3306,0.0016370999999999,0.00025895,0.0,0 STARLINK-4681,1 53594U 22104G   23016.20888880  .00025895  00000-0  16371-2 0  9998,2 53594  53.2176 359.8293 0001637 105.7866 254.3306 15.08885489 21542,6917.741,95.435,540.739,538.474,0.0
53594.0,STARLINK-4681,PAYLOAD,2023-01-16 06:36:10,15.08891261,0.0001315999999999,53.2166,359.5319,99.0586,261.0556,0.0023772,0.00037802,0.0,0 STARLINK-4681,1 53594U 22104G   23016.27512683  .00037802  00000-0  23772-2 0  9994,2 53594  53.2166 359.5319 0001316  99.0586 261.0556 15.08891261 22712,6917.724,95.434,540.499,538.678,0.0
53594.0,STARLINK-4681,PAYLOAD,2023-01-16 22:30:03,15.08842544,0.0001686,53.2173,356.5586,89.3183,270.8003,0.00086836,0.0001356,0.0,0 STARLINK-4681,1 53594U 22104G   23016.93753486  .00013560  00000-0  86836-3 0  9991,2 53594  53.2173 356.5586 0001686  89.3183 270.8003 15.08842544 21655,6917.8730000000005,95.437,540.904,538.571,0.0
53594.0,STARLINK-4681,PAYLOAD,2023-01-17 08:02:22,15.08829169,0.0001652,53.2178,354.7717,83.2237,276.8943,5.1938e-05,5.38e-06,0.0,0 STARLINK-4681,1 53594U 22104G   23017.33497984  .00000538  00000-0  51938-4 0  9991,2 53594  53.2178 354.7717 0001652  83.2237 276.8943 15.08829169 21716,6917.9130000000005,95.438,540.9209999999999,538.636,0.0
53594.0,STARLINK-4681,PAYLOAD,2023-01-17 15:59:18,15.08834182,0.000157,53.2186,353.2837,87.3401,272.7771,0.00018168,2.604e-05,0.0,0 STARLINK-4681,1 53594U 22104G   23017.66618181  .00002604  00000-0  18168-3 0  9994,2 53594  53.2186 353.2837 0001570  87.3401 272.7771 15.08834182 22928,6917.898,95.438,540.849,538.677,0.0
53594.0,STARLINK-4681,PAYLOAD,2023-01-18 07:53:09,15.0885112,0.000149,53.2167,350.31199999999995,84.9045,275.2117,0.00076879,0.00011972,0.0,0 STARLINK-4681,1 53594U 22104G   23018.32858521  .00011972  00000-0  76879-3 0  9993,2 53594  53.2167 350.3120 0001490  84.9045 275.2117 15.08851120 21863,6917.846,95.437,540.742,538.681,0.0
53594.0,STARLINK-4681,PAYLOAD,2023-01-19 01:22:23,15.08861783,0.0001365999999999,53.2167,347.0399,80.7232,279.3915,0.00092086,0.00014407,0.0,0 STARLINK-4681,1 53594U 22104G   23019.05722141  .00014407  00000-0  92086-3 0  9996,2 53594  53.2167 347.0399 0001366  80.7232 279.3915 15.08861783 21977,6917.814,95.436,540.624,538.734,0.0
53594.0,STARLINK-4681,PAYLOAD,2023-01-19 07:43:55,15.08884203,0.0001411,53.2178,345.8513,77.6786,282.4364,0.0014925,0.00023574,0.0,0 STARLINK-4681,1 53594U 22104G   23019.32217422  .00023574  00000-0  14925-2 0  9997,2 53594  53.2178 345.8513 0001411  77.6786 282.4364 15.08884203 22014,6917.745,95.435,540.586,538.634,0.0
53594.0,STARLINK-4681,PAYLOAD,2023-01-20 04:23:57,15.08844264,0.0002791,53.2178,341.9864,84.3749,275.7562,0.0014939999999999,0.00023573,0.0,0 STARLINK-4681,1 53594U 22104G   23020.18330714  .00023573  00000-0  14940-2 0  9999,2 53594  53.2178 341.9864 0002791  84.3749 275.7562 15.08844264 22148,6917.866999999999,95.437,541.663,537.802,0.0
53594.0,STARLINK-4681,PAYLOAD,2023-01-20 07:34:44,15.08838611,0.0001318,53.2178,341.3923,58.5769,301.5352,0.0014697,0.00023179,0.0,0 STARLINK-4681,1 53594U 22104G   23020.31578779  .00023179  00000-0  14697-2 0  9990,2 53594  53.2178 341.3923 0001318  58.5769 301.5352 15.08838611 23322,6917.885,95.438,540.661,538.8380000000001,0.0
53594.0,STARLINK-4681,PAYLOAD,2023-01-20 13:56:16,15.08825597,0.0001641,53.2174,340.2014,62.2047,297.9111,0.00073683,0.00011453,0.0,0 STARLINK-4681,1 53594U 22104G   23020.58075190  .00011453  00000-0  73683-3 0  9991,2 53594  53.2174 340.2014 0001641  62.2047 297.9111 15.08825597 22203,6917.924,95.438,540.925,538.654,0.0
53594.0,STARLINK-4681,PAYLOAD,2023-01-21 04:14:44,15.08860054,0.0001176,53.2171,337.528,80.7449,279.3676,0.001299,0.00020457,0.0,0 STARLINK-4681,1 53594U 22104G   23021.17690846  .00020457  00000-0  12990-2 0  9995,2 53594  53.2171 337.5280 0001176  80.7449 279.3676 15.08860054 22294,6917.819,95.436,540.498,538.871,0.0
53594.0,STARLINK-4681,PAYLOAD,2023-01-21 13:47:03,15.0885396,0.0001986999999999,53.2179,335.7418,84.4306,275.6913,0.0011057999999999,0.00017361,0.0,0 STARLINK-4681,1 53594U 22104G   23021.57435110  .00017361  00000-0  11058-2 0  9994,2 53594  53.2179 335.7418 0001987  84.4306 275.6913 15.08853960 22356,6917.838000000001,95.437,541.077,538.328,0.0
53594.0,STARLINK-4681,PAYLOAD,2023-01-22 02:30:08,15.08847098,0.0001385999999999,53.2182,333.365,91.328,268.7871,0.00070004,0.00010873,0.0,0 STARLINK-4681,1 53594U 22104G   23022.10426776  .00010873  00000-0  70004-3 0  9990,2 53594  53.2182 333.3650 0001386  91.3280 268.7871 15.08847098 22433,6917.859,95.437,540.683,538.765,0.0
53594.0,STARLINK-4681,PAYLOAD,2023-01-22 13:37:50,15.08842894,0.0002255999999999,53.2167,331.2811,75.421,284.7032,0.00037761,5.727e-05,0.0,0 STARLINK-4681,1 53594U 22104G   23022.56795029  .00005727  00000-0  37761-3 0  9995,2 53594  53.2167 331.2811 0002256  75.4210 284.7032 15.08842894 22509,6917.871999999999,95.437,541.297,538.1759999999999,0.0
53594.0,STARLINK-4681,PAYLOAD,2023-01-23 05:31:42,15.08830413,0.0001744,53.2181,328.3116,74.0733,286.0452,7.5426e-05,9.12e-06,0.0,0 STARLINK-4681,1 53594U 22104G   23023.23035457  .00000912  00000-0  75426-4 0  9994,2 53594  53.2181 328.3116 0001744  74.0733 286.0452 15.08830413 22602,6917.91,95.438,540.981,538.568,0.0
